{
  "type": "FeatureCollection",
  "features": [
    {
      "type": "Feature",
      "properties": {
        "norad_id": 33986,
        "name": "COSMOS 2251 DEB",
        "group": "cosmos-2251-debris",
        "lat": 50.68975550127247,
        "lon": 114.45238466657193,
        "alt_km": 746.5024112129477,
        "timestamp": "2025-12-06T03:35:02.279192+00:00",
        "meta_object_name": "COSMOS 2251 DEB",
        "meta_object_id": "1993-036FV",
        "meta_epoch": "2025-12-04T16:53:59.253792",
        "meta_mean_motion": 14.43138264,
        "meta_eccentricity": 0.00400594,
        "meta_inclination": 74.0363,
        "meta_ra_of_asc_node": 317.5979,
        "meta_arg_of_pericenter": 32.2769,
        "meta_mean_anomaly": 148.5039,
        "meta_ephemeris_type": 0,
        "meta_classification_type": "U",
        "meta_norad_cat_id": 33986,
        "meta_element_set_no": 999,
        "meta_rev_at_epoch": 87912,
        "meta_bstar": 0.0015770448,
        "meta_mean_motion_dot": 5.325e-05,
        "meta_mean_motion_ddot": 0,
        "tle_line1": "1 33986U 93036FV  25338.70415803  .00005325  00000+0  15770-2 0  9995",
        "tle_line2": "2 33986  74.0363 317.5979 0040059  32.2769 148.5039 14.43138264879125"
      },
      "geometry": {
        "type": "Point",
        "coordinates": [
          114.45238466657193,
          50.68975550127247
        ]
      }
    },
    {
      "type": "Feature",
      "properties": {
        "norad_id": 33990,
        "name": "COSMOS 2251 DEB",
        "group": "cosmos-2251-debris",
        "lat": -39.578593760901846,
        "lon": 130.36156679033547,
        "alt_km": 1101.1875110640958,
        "timestamp": "2025-12-06T03:35:02.279202+00:00",
        "meta_object_name": "COSMOS 2251 DEB",
        "meta_object_id": "1993-036FZ",
        "meta_epoch": "2025-12-05T07:27:30.430368",
        "meta_mean_motion": 13.4995653,
        "meta_eccentricity": 0.04076216,
        "meta_inclination": 73.9283,
        "meta_ra_of_asc_node": 297.921,
        "meta_arg_of_pericenter": 319.5635,
        "meta_mean_anomaly": 152.7475,
        "meta_ephemeris_type": 0,
        "meta_classification_type": "U",
        "meta_norad_cat_id": 33990,
        "meta_element_set_no": 999,
        "meta_rev_at_epoch": 82629,
        "meta_bstar": 0.0027826006,
        "meta_mean_motion_dot": 2.941e-05,
        "meta_mean_motion_ddot": 0,
        "tle_line1": "1 33990U 93036FZ  25339.31076887  .00002941  00000+0  27826-2 0  9999",
        "tle_line2": "2 33990  73.9283 297.9210 0407621 319.5635 152.7475 13.49956530826293"
      },
      "geometry": {
        "type": "Point",
        "coordinates": [
          130.36156679033547,
          -39.578593760901846
        ]
      }
    },
    {
      "type": "Feature",
      "properties": {
        "norad_id": 33992,
        "name": "COSMOS 2251 DEB",
        "group": "cosmos-2251-debris",
        "lat": 22.39629226480898,
        "lon": 163.6690017902,
        "alt_km": 647.4219047184188,
        "timestamp": "2025-12-06T03:35:02.279213+00:00",
        "meta_object_name": "COSMOS 2251 DEB",
        "meta_object_id": "1993-036GB",
        "meta_epoch": "2025-12-05T04:17:58.154784",
        "meta_mean_motion": 14.66121892,
        "meta_eccentricity": 0.00516522,
        "meta_inclination": 74.0239,
        "meta_ra_of_asc_node": 352.3192,
        "meta_arg_of_pericenter": 112.556,
        "meta_mean_anomaly": 324.9733,
        "meta_ephemeris_type": 0,
        "meta_classification_type": "U",
        "meta_norad_cat_id": 33992,
        "meta_element_set_no": 999,
        "meta_rev_at_epoch": 89014,
        "meta_bstar": 0.0013407468,
        "meta_mean_motion_dot": 7.491e-05,
        "meta_mean_motion_ddot": 0,
        "tle_line1": "1 33992U 93036GB  25339.17914531  .00007491  00000+0  13407-2 0  9997",
        "tle_line2": "2 33992  74.0239 352.3192 0051652 112.5560 324.9733 14.66121892890140"
      },
      "geometry": {
        "type": "Point",
        "coordinates": [
          163.6690017902,
          22.39629226480898
        ]
      }
    },
    {
      "type": "Feature",
      "properties": {
        "norad_id": 33994,
        "name": "COSMOS 2251 DEB",
        "group": "cosmos-2251-debris",
        "lat": -56.1960328515026,
        "lon": 177.3061055900951,
        "alt_km": 748.030053583826,
        "timestamp": "2025-12-06T03:35:02.279224+00:00",
        "meta_object_name": "COSMOS 2251 DEB",
        "meta_object_id": "1993-036GD",
        "meta_epoch": "2025-12-05T01:45:57.547872",
        "meta_mean_motion": 14.4120775,
        "meta_eccentricity": 0.00233667,
        "meta_inclination": 74.0425,
        "meta_ra_of_asc_node": 204.5956,
        "meta_arg_of_pericenter": 340.3205,
        "meta_mean_anomaly": 140.9977,
        "meta_ephemeris_type": 0,
        "meta_classification_type": "U",
        "meta_norad_cat_id": 33994,
        "meta_element_set_no": 999,
        "meta_rev_at_epoch": 88309,
        "meta_bstar": 0.00017756633,
        "meta_mean_motion_dot": 5.48e-06,
        "meta_mean_motion_ddot": 0,
        "tle_line1": "1 33994U 93036GD  25339.07358273  .00000548  00000+0  17757-3 0  9992",
        "tle_line2": "2 33994  74.0425 204.5956 0023366 340.3205 140.9977 14.41207750883096"
      },
      "geometry": {
        "type": "Point",
        "coordinates": [
          177.3061055900951,
          -56.1960328515026
        ]
      }
    },
    {
      "type": "Feature",
      "properties": {
        "norad_id": 33995,
        "name": "COSMOS 2251 DEB",
        "group": "cosmos-2251-debris",
        "lat": 9.459887994323887,
        "lon": -51.32148562537778,
        "alt_km": 737.0498165405716,
        "timestamp": "2025-12-06T03:35:02.279234+00:00",
        "meta_object_name": "COSMOS 2251 DEB",
        "meta_object_id": "1993-036GE",
        "meta_epoch": "2025-12-04T13:58:48.597024",
        "meta_mean_motion": 14.34700139,
        "meta_eccentricity": 0.0060799,
        "meta_inclination": 74.0599,
        "meta_ra_of_asc_node": 134.2732,
        "meta_arg_of_pericenter": 150.8805,
        "meta_mean_anomaly": 209.5761,
        "meta_ephemeris_type": 0,
        "meta_classification_type": "U",
        "meta_norad_cat_id": 33995,
        "meta_element_set_no": 999,
        "meta_rev_at_epoch": 87402,
        "meta_bstar": 0.0021301,
        "meta_mean_motion_dot": 6.137e-05,
        "meta_mean_motion_ddot": 0,
        "tle_line1": "1 33995U 93036GE  25338.58250691  .00006137  00000+0  21301-2 0  9992",
        "tle_line2": "2 33995  74.0599 134.2732 0060799 150.8805 209.5761 14.34700139874028"
      },
      "geometry": {
        "type": "Point",
        "coordinates": [
          -51.32148562537778,
          9.459887994323887
        ]
      }
    },
    {
      "type": "Feature",
      "properties": {
        "norad_id": 33999,
        "name": "COSMOS 2251 DEB",
        "group": "cosmos-2251-debris",
        "lat": -70.14554228825956,
        "lon": 116.93540558656854,
        "alt_km": 640.182932941304,
        "timestamp": "2025-12-06T03:35:02.279245+00:00",
        "meta_object_name": "COSMOS 2251 DEB",
        "meta_object_id": "1993-036GJ",
        "meta_epoch": "2025-12-05T03:45:45.408384",
        "meta_mean_motion": 14.83100969,
        "meta_eccentricity": 0.00445702,
        "meta_inclination": 73.9201,
        "meta_ra_of_asc_node": 245.8959,
        "meta_arg_of_pericenter": 143.7386,
        "meta_mean_anomaly": 216.6827,
        "meta_ephemeris_type": 0,
        "meta_classification_type": "U",
        "meta_norad_cat_id": 33999,
        "meta_element_set_no": 999,
        "meta_rev_at_epoch": 89138,
        "meta_bstar": 0.0030975772,
        "meta_mean_motion_dot": 0.00025743,
        "meta_mean_motion_ddot": 0,
        "tle_line1": "1 33999U 93036GJ  25339.15677556  .00025743  00000+0  30976-2 0  9995",
        "tle_line2": "2 33999  73.9201 245.8959 0044570 143.7386 216.6827 14.83100969891383"
      },
      "geometry": {
        "type": "Point",
        "coordinates": [
          116.93540558656854,
          -70.14554228825956
        ]
      }
    },
    {
      "type": "Feature",
      "properties": {
        "norad_id": 34001,
        "name": "COSMOS 2251 DEB",
        "group": "cosmos-2251-debris",
        "lat": -73.97676553550778,
        "lon": -161.02586541088172,
        "alt_km": 779.3210382375319,
        "timestamp": "2025-12-06T03:35:02.279256+00:00",
        "meta_object_name": "COSMOS 2251 DEB",
        "meta_object_id": "1993-036GL",
        "meta_epoch": "2025-12-05T06:51:10.177344",
        "meta_mean_motion": 14.3708295,
        "meta_eccentricity": 0.00196081,
        "meta_inclination": 74.0384,
        "meta_ra_of_asc_node": 295.294,
        "meta_arg_of_pericenter": 18.084,
        "meta_mean_anomaly": 103.7637,
        "meta_ephemeris_type": 0,
        "meta_classification_type": "U",
        "meta_norad_cat_id": 34001,
        "meta_element_set_no": 999,
        "meta_rev_at_epoch": 88039,
        "meta_bstar": 0.00038555748,
        "meta_mean_motion_dot": 1.121e-05,
        "meta_mean_motion_ddot": 0,
        "tle_line1": "1 34001U 93036GL  25339.28553446  .00001121  00000+0  38556-3 0  9992",
        "tle_line2": "2 34001  74.0384 295.2940 0019608  18.0840 103.7637 14.37082950880396"
      },
      "geometry": {
        "type": "Point",
        "coordinates": [
          -161.02586541088172,
          -73.97676553550778
        ]
      }
    }
  ]
}